0076P         2019 10 26.1354  1.604769  0.538173    0.0175   84.1246   30.4567  20200324   8.0 12.0  76P/West-Kohoutek-Ikemura                                MPC118097
0077P         2023 04  2.9665  2.343706  0.352576  196.8682   14.8026   24.3279  20200324   7.0  8.0  77P/Longmore                                             MPC100283
0078P         2019 04  2.6553  2.013461  0.461692  192.6663  210.5391    6.2486  20200324   9.0  4.0  78P/Gehrels                                              MPEC 2016-U66
0079P         2018 09 13.2371  1.120949  0.619079  281.8246  280.5253    3.1480  20200324  16.0  4.0  79P/du Toit-Hartley                                      MPC 94675
0080P         2022 12  8.3882  1.613007  0.599183  339.2500  259.8222   29.9458  20200324   9.0  4.0  80P/Peters-Hartley                                       MPEC 2014-P41
0081P         2022 12 15.8085  1.596367  0.537291   41.7209  136.1074    3.2371  20200324   7.0  6.0  81P/Wild                                                 MPC105241
0082P         2018 06 26.8803  3.633563  0.121829  226.9475  239.3136    1.1284  20200324   5.0  8.0  82P/Gehrels                                              MPC 75717
0084P         2020 06  3.8101  1.718849  0.515436  281.5607  108.1750    7.5523  20200324   9.5  8.0  84P/Giclas                                               MPC105241
0086P         2022 02  7.2593  2.261189  0.372648  179.3027   72.3766   15.4757  20200324  11.0  6.0  86P/Wild                                                 MPC109147
0087P         2020 05  9.2405  2.099845  0.389186   24.9265  181.8619    2.6023  20200324   7.2 10.0  87P/Bus                                                  MPC105241
0088P         2020 09 26.6309  1.353111  0.564263  235.9166   56.6855    4.3838  20200324  11.0  6.0  88P/Howell                                               MPEC 2019-JE2
0089P         2016 12 15.5211  2.219798  0.408673  250.2533   41.4204   12.0714  20200324  11.5  6.0  89P/Russell                                              MPC100283
0090P         2017 06 18.8051  2.970563  0.509519   29.1301   13.2177    9.6396  20200324   8.5  6.0  90P/Gehrels                                              MPC107051
0091P         2020 11  9.2854  2.604379  0.330590  354.7728  247.8285   14.0916  20200324   7.5  6.0  91P/Russell                                              MPC105241
0092P         2015 03  2.3911  1.815905  0.660323  163.7081  181.3945   19.4737  20200324  12.0  6.0  92P/Sanguin                                              MPEC 2014-J58
0093P         2017 02 28.8006  1.701329  0.612022   74.8801  339.6229   12.2008  20200324   9.0  4.0  93P/Lovas                                                NK   2707
0094P         2023 05 22.1514  2.227932  0.364715   92.5226   70.8600    6.1878  20200324   9.0  4.0  94P/Russell                                              MPEC 2013-O31
0095P         1996 02 11.6654  8.495693  0.379091  339.8139  209.2375    6.9410  20200324   6.5  2.0  95P/Chiron                                               MPC 75717
0096P         2017 10 27.1724  0.117515  0.961192   14.6236   94.2865   58.4604  20200324   9.0  4.0  96P/Machholz                                             MPEC 2017-T14
0097P         2022 02 14.0025  2.579146  0.461296  229.1135  184.4408   17.8661  20200324   5.5  6.0  97P/Metcalf-Brewington                                   MPC 77020
0098P         2021 01  4.9168  1.663276  0.562200  157.9075  114.7108   10.5613  20200324   9.0  8.0  98P/Takamizawa                                           MPEC 2013-H38
0099P         2022 04 12.2701  4.705585  0.230486  174.8923   28.1297    4.3378  20200324   4.5  6.0  99P/Kowal                                                MPC 75718
0100P         2022 08 10.7147  2.015201  0.412724  182.0012   37.7200   25.5748  20200324   9.0  4.0  100P/Hartley                                             MPEC 2013-O31
0101P         2020 01 12.5178  2.344908  0.595525  277.6947  116.2316    5.0528  20200324  12.0  4.8  101P/Chernykh                                            MPC115887
0102P         2021 01 22.4037  2.069258  0.457695   20.5399  339.3949   25.8724  20200324   6.5  8.0  102P/Shoemaker                                           MPC 86232
0103P         2017 04 19.7443  1.067947  0.692839  181.3024  219.7275   13.5920  20200324   8.5  8.0  103P/Hartley                                             MPEC 2018-HA5
0104P         2022 01  8.1412  1.053586  0.670924  225.1058  209.6832    5.7869  20200324  16.0  4.0  104P/Kowal                                               MPC100283
0105P         2018 08 10.1277  2.045011  0.410005   46.4563  192.4200    9.1742  20200324  11.5  6.0  105P/Singer Brewster                                     MPC109147
0106P         2021 08 18.4722  1.524981  0.594776  353.5596   49.0860   19.5853  20200324  14.0  4.8  106P/Schuster                                            MPC 92276
0107P         2018 05 23.6214  0.968728  0.631108   95.3723  266.8176    2.7983  20200324   9.0  4.0  107P/Wilson-Harrington                                   MPEC 2015-M77
0108P         2021 09  9.3569  1.653827  0.557990  354.1745   50.6429   11.4873  20200324   8.0 12.0  108P/Ciffreo                                             MPC 89313
0109P         1992 11 28.7034  0.959700  0.963234  152.8789  139.1224  113.8820  20200324   4.0  6.0  109P/Swift-Tuttle                                        105,  420
0110P         2021 10 18.3870  2.456793  0.317735  167.4256  287.5343   11.7075  20200324   1.0 12.0  110P/Hartley                                             MPC 92276
0111P         2021 06 17.2786  3.707086  0.105411    1.2270   89.7631    4.2275  20200324   5.0  8.0  111P/Helin-Roman-Crockett                                MPC 75718
0112P         2020 02  7.9664  1.446621  0.589754   21.5006   31.8496   24.1907  20200324  14.0  6.0  112P/Urata-Niijima                                       MPC118097
0113P         2022 05 23.6557  2.091095  0.433072  115.5275  307.0760    5.2373  20200324  13.5  4.0  113P/Spitaler                                            MPEC 2015-E14
0114P         2020 01 14.0819  1.579396  0.554777  172.8117  271.0598   18.2723  20200324  11.5  6.0  114P/Wiseman-Skiff                                       MPEC 2019-TG9
0115P         2020 07 29.8093  2.056802  0.518893  121.0250  176.0313   11.6741  20200324  10.5  6.0  115P/Maury                                               MPC105241
0116P         2022 07 16.9194  2.193901  0.371028  173.3971   20.9997    3.6045  20200324   2.5 10.0  116P/Wild                                                MPC106348
0117P         2022 07  6.5855  3.042423  0.255720  222.6758   58.8605    8.7011  20200324   9.0  4.0  117P/Helin-Roman-Alu                                     MPEC 2015-S97
0118P         2022 11 11.7219  1.868008  0.452943  309.2070  145.0404    9.1111  20200324  12.0  4.0  118P/Shoemaker-Levy                                      MPC 95735
0119P         2022 07 18.6058  2.232973  0.414081  321.5143  104.9459    7.5232  20200324   3.5  8.0  119P/Parker-Hartley                                      MPC 84628
0120P         2021 05  6.3929  2.479479  0.375324   36.3157  358.7177    8.4819  20200324  12.0  4.0  120P/Mueller                                             MPC 80901
0121P         2023 06 27.6340  3.740058  0.184697   11.2272   94.1420   20.1643  20200324   6.5  8.0  121P/Shoemaker-Holt                                      MPC100283
0122P         1995 09 19.9613  0.664796  0.962304   13.0253   79.5084   84.6154  20200324   7.5  5.2  122P/de Vico                                             MPC 75718
0123P         2019 02  5.3971  2.128467  0.448806  103.1396   46.4891   15.3506  20200324   4.0 10.0  123P/West-Hartley                                        MPC114608
0124P         2020 04 26.8864  1.647526  0.503472  183.8536    0.3709   31.5126  20200324  13.5  2.8  124P/Mrkos                                               MPC118097
0125P         2018 08 27.8697  1.521023  0.513222   87.2026  153.1674    9.9877  20200324   9.0  4.0  125P/Spacewatch                                          MPEC 2015-M77
0126P         2023 07  5.6923  1.715994  0.695884  356.4951  357.8407   45.8404  20200324   9.0  4.0  126P/IRAS                                                MPC 66205
0127P         2022 08 11.5403  2.208232  0.359797    6.5610   13.6488   14.2987  20200324  11.0  6.0  127P/Holt-Olmstead                                       MPC 84321
0128P         2017 01  9.5906  3.054967  0.320325  210.4142  214.2926    4.3655  20200324   8.5  4.0  128P/Shoemaker-Holt                                      MPC 89014
0129P         2022 12  6.7886  3.921023  0.083931  308.3001  184.8928    3.4434  20200324  11.0  4.0  129P/Shoemaker-Levy                                      MPEC 2019-TG9
0130P         2018 01 22.0563  1.823131  0.461224  245.9477   70.2506    6.0644  20200324  10.0  6.0  130P/McNaught-Hughes                                     MPC 78188
0131P         2019 01 24.1620  2.417023  0.343526  179.0549  214.1819    7.3531  20200324  11.0  4.0  131P/Mueller                                             MPC102101
0132P         2021 11 13.1223  1.685203  0.565722  216.4048  174.1886    5.3790  20200324  11.0  6.0  132P/Helin-Roman-Alu                                     MPC 92985
0133P         2018 09 21.3083  2.665808  0.157231  131.6435  160.1303    1.3891  20200324  15.4  2.0  133P/Elst-Pizarro                                        MPC 94676
0134P         2014 05 21.3099  2.583490  0.587060   18.8572  202.0838    4.3455  20200324  11.5  4.0  134P/Kowal-Vavrova                                       MPC 89012
0135P         2022 04  6.8797  2.679941  0.295601   22.2219  213.0557    6.0615  20200324   9.0  4.0  135P/Shoemaker-Levy                                      MPEC 2015-E14
